OBJECT_NAME,OBJECT_ID,EPOCH,MEAN_MOTION,ECCENTRICITY,INCLINATION,RA_OF_ASC_NODE,ARG_OF_PERICENTER,MEAN_ANOMALY,EPHEMERIS_TYPE,CLASSIFICATION_TYPE,NORAD_CAT_ID,ELEMENT_SET_NO,REV_AT_EPOCH,BSTAR,MEAN_MOTION_DOT,MEAN_MOTION_DDOT
TIANMU-1 21,2023-208C,2026-07-06T20:47:26.052864,15.35445900,.000599,97.4518,307.6947,237.1921,122.8746,0,U,58662,999,14058,.23263E-3,.7933E-4,0
TIANMU-1 22,2023-208D,2026-07-06T20:58:34.291200,15.31346226,.0002235,97.4513,304.1991,263.0459,97.0528,0,U,58663,999,14034,.21086E-3,.6305E-4,0
TIANMU-1 15,2024-004A,2026-07-06T19:47:01.995360,15.26854547,.0005674,97.4675,14.0149,265.4039,94.6551,0,U,58700,999,13877,.17072E-3,.4431E-4,0
TIANMU-1 16,2024-004B,2026-07-06T21:07:02.631648,15.26957472,.0004333,97.4623,13.2917,285.8755,74.2006,0,U,58701,999,13878,.16213E-3,.4216E-4,0
TIANMU-1 17,2024-004C,2026-07-06T20:46:07.385664,15.26955836,.000389,97.4649,13.7693,293.9030,66.1801,0,U,58702,999,13877,.17718E-3,.4614E-4,0
TIANMU-1 18,2024-004D,2026-07-06T20:11:01.642272,15.26872766,.0003375,97.4666,14.0067,266.0917,93.9936,0,U,58703,999,13877,.17321E-3,.4498E-4,0
INSAT-3DS,2024-033A,2026-07-06T19:19:00.164064,1.00272669,.0001136,0.0806,95.7113,18.8167,182.0697,0,U,58990,999,4726,0,-.141E-5,0
METEOR-M2 4,2024-039A,2026-07-06T21:06:01.869984,14.22431561,.0008151,98.7020,146.9306,109.4468,250.7591,0,U,59051,999,12206,.26755E-4,.16E-6,0
GOES 19,2024-119A,2026-07-06T18:34:09.479712,1.00272104,.0000443,0.0333,203.4320,335.5407,309.1245,0,U,60133,999,716,0,-.233E-5,0
MTG-S1,2025-143A,2026-07-06T17:12:49.313088,1.00272491,.000322,0.5893,343.0440,262.3052,297.1030,0,U,64723,999,361,0,.7E-7,0
METOP-SGA1,2025-172A,2026-07-06T17:32:13.242048,14.19818253,.0007536,98.6634,247.0451,357.6286,2.4853,0,U,65159,999,4656,.30682E-4,.22E-6,0
FENGYUN 3H,2025-219A,2026-07-06T16:49:35.863392,14.19923910,.0001327,98.6770,128.0911,64.9068,295.2246,0,U,65815,999,4015,.46424E-4,.55E-6,0
