TIANMU-1 21             
1 58662U 23208C   26187.86627376  .00007933  00000+0  23263-3 0  9991
2 58662  97.4518 307.6947 0005990 237.1921 122.8746 15.35445900140581
TIANMU-1 22             
1 58663U 23208D   26187.87400800  .00006305  00000+0  21086-3 0  9997
2 58663  97.4513 304.1991 0002235 263.0459  97.0528 15.31346226140343
TIANMU-1 15             
1 58700U 24004A   26187.82432865  .00004431  00000+0  17072-3 0  9993
2 58700  97.4675  14.0149 0005674 265.4039  94.6551 15.26854547138773
TIANMU-1 16             
1 58701U 24004B   26187.87989157  .00004216  00000+0  16213-3 0  9997
2 58701  97.4623  13.2917 0004333 285.8755  74.2006 15.26957472138784
TIANMU-1 17             
1 58702U 24004C   26187.86536326  .00004614  00000+0  17718-3 0  9996
2 58702  97.4649  13.7693 0003890 293.9030  66.1801 15.26955836138776
TIANMU-1 18             
1 58703U 24004D   26187.84099123  .00004498  00000+0  17321-3 0  9994
2 58703  97.4666  14.0067 0003375 266.0917  93.9936 15.26872766138775
INSAT-3DS               
1 58990U 24033A   26187.80486301 -.00000141  00000+0  00000+0 0  9992
2 58990   0.0806  95.7113 0001136  18.8167 182.0697  1.00272669 47260
METEOR-M2 4             
1 59051U 24039A   26187.87918831  .00000016  00000+0  26755-4 0  9992
2 59051  98.7020 146.9306 0008151 109.4468 250.7591 14.22431561122063
GOES 19                 
1 60133U 24119A   26187.77372083 -.00000233  00000+0  00000+0 0  9998
2 60133   0.0333 203.4320 0000443 335.5407 309.1245  1.00272104  7161
MTG-S1                  
1 64723U 25143A   26187.71723742  .00000007  00000+0  00000+0 0  9999
2 64723   0.5893 343.0440 0003220 262.3052 297.1030  1.00272491  3612
METOP-SGA1              
1 65159U 25172A   26187.73070882  .00000022  00000+0  30682-4 0  9998
2 65159  98.6634 247.0451 0007536 357.6286   2.4853 14.19818253 46560
FENGYUN 3H              
1 65815U 25219A   26187.70110953  .00000055  00000+0  46424-4 0  9997
2 65815  98.6770 128.0911 0001327  64.9068 295.2246 14.19923910 40151
